{"fetched_at":"2026-03-29T16:36:15Z","count":15609,"tles":[{"name":"STARLINK-36100","line1":"1 66942U 25286T   26087.79186682  .00021773  00000+0  74486-3 0  9991","line2":"2 66942  53.1571 269.5608 0000819  65.2751 294.8335 15.30209450 18272","category":"Starlink"}]}